QIANFAN-73              
1 63159U 25046A   25354.15995420  .00000098  00000+0  13323-3 0  9996
2 63159  88.9767 319.2544 0016837  99.9785 260.3267 13.50978722 48418
QIANFAN-74              
1 63160U 25046B   25354.14333742  .00000063  00000+0  78199-4 0  9995
2 63160  88.9768 319.1449 0002031  75.3642 284.7734 13.50975510 48472
QIANFAN-75              
1 63161U 25046C   25354.20469041  .00000130  00000+0  18270-3 0  9993
2 63161  88.9769 319.3722 0017929 102.6178 257.6980 13.50980730 48359
QIANFAN-76              
1 63162U 25046D   25354.12727545  .00000076  00000+0  99494-4 0  9998
2 63162  88.9768 319.3609 0015462 102.9459 257.3420 13.50978148 48354
QIANFAN-77              
1 63163U 25046E   25354.13972501  .00000281  00000+0  19484-3 0  9992
2 63163  88.9770 317.3059 0016919  60.6873 299.5992 13.96093209 49486
QIANFAN-78              
1 63164U 25046F   25354.16815638  .00000105  00000+0  14316-3 0  9997
2 63164  88.9767 319.2205 0016802 105.0758 255.2253 13.50979072 48438
QIANFAN-79              
1 63165U 25046G   25354.19680881  .00000107  00000+0  14672-3 0  9998
2 63165  88.9771 319.3254 0016527 103.4286 256.8708 13.50980751 48383
QIANFAN-80              
1 63166U 25046H   25354.13927392  .00000113  00000+0  15653-3 0  9991
2 63166  88.9769 319.0380 0015436 107.1276 253.1567 13.50978690 48535
